[{"OBJECT_NAME":"FLOCK 4G-34","OBJECT_ID":"2025-009AT","EPOCH":"2026-03-09T17:34:06.952224","MEAN_MOTION":15.27131464,"ECCENTRICITY":6.743e-5,"INCLINATION":97.4004,"RA_OF_ASC_NODE":151.0149,"ARG_OF_PERICENTER":348.828,"MEAN_ANOMALY":11.2944,"EPHEMERIS_TYPE":0,"CLASSIFICATION_TYPE":"U","NORAD_CAT_ID":62650,"ELEMENT_SET_NO":999,"REV_AT_EPOCH":6372,"BSTAR":0.00049338357,"MEAN_MOTION_DOT":0.00013063,"MEAN_MOTION_DDOT":0},{"OBJECT_NAME":"STARLINK-36537","OBJECT_ID":"2026-012Z","EPOCH":"2026-03-09T00:53:21.037920","MEAN_MOTION":15.27583043,"ECCENTRICITY":0.00018682,"INCLINATION":42.9987,"RA_OF_ASC_NODE":317.9375,"ARG_OF_PERICENTER":254.2852,"MEAN_ANOMALY":105.7794,"EPHEMERIS_TYPE":0,"CLASSIFICATION_TYPE":"U","NORAD_CAT_ID":67516,"ELEMENT_SET_NO":999,"REV_AT_EPOCH":766,"BSTAR":0.0012267505,"MEAN_MOTION_DOT":0.00033653,"MEAN_MOTION_DDOT":0}]
